{
    "links": {
        "self": "http://www.neowsapp.com/rest/v1/neo/3714457?api_key=iIulBulltgU6a56xZRHN4H3l9WmuAYTsLGpBGhQ2"
    },
    "id": "3714457",
    "neo_reference_id": "3714457",
    "name": "(2015 FV117)",
    "designation": "2015 FV117",
    "nasa_jpl_url": "http://ssd.jpl.nasa.gov/sbdb.cgi?sstr=3714457",
    "absolute_magnitude_h": 22.1,
    "estimated_diameter": {
        "kilometers": {
            "estimated_diameter_min": 0.1010543415,
            "estimated_diameter_max": 0.2259643771
        },
        "meters": {
            "estimated_diameter_min": 101.054341542,
            "estimated_diameter_max": 225.9643771094
        },
        "miles": {
            "estimated_diameter_min": 0.0627922373,
            "estimated_diameter_max": 0.140407711
        },
        "feet": {
            "estimated_diameter_min": 331.5431259047,
            "estimated_diameter_max": 741.3529669956
        }
    },
    "is_potentially_hazardous_asteroid": false,
    "close_approach_data": [
        {
            "close_approach_date": "2005-11-02",
            "close_approach_date_full": "2005-Nov-02 01:01",
            "epoch_date_close_approach": 1130893260000,
            "relative_velocity": {
                "kilometers_per_second": "16.9974958607",
                "kilometers_per_hour": "61190.9850985063",
                "miles_per_hour": "38021.6984907913"
            },
            "miss_distance": {
                "astronomical": "0.451180462",
                "lunar": "175.509199718",
                "kilometers": "67495636.10081594",
                "miles": "41939843.496662372"
            },
            "orbiting_body": "Earth"
        },
        {
            "close_approach_date": "2015-03-25",
            "close_approach_date_full": "2015-Mar-25 14:34",
            "epoch_date_close_approach": 1427294040000,
            "relative_velocity": {
                "kilometers_per_second": "19.8781154178",
                "kilometers_per_hour": "71561.2155040282",
                "miles_per_hour": "44465.3563780446"
            },
            "miss_distance": {
                "astronomical": "0.09603773",
                "lunar": "37.35867697",
                "kilometers": "14367039.8476351",
                "miles": "8927264.59856038"
            },
            "orbiting_body": "Earth"
        },
        {
            "close_approach_date": "2024-04-06",
            "close_approach_date_full": "2024-Apr-06 15:45",
            "epoch_date_close_approach": 1712418300000,
            "relative_velocity": {
                "kilometers_per_second": "25.9076381315",
                "kilometers_per_hour": "93267.4972735105",
                "miles_per_hour": "57952.795736421"
            },
            "miss_distance": {
                "astronomical": "0.3623288572",
                "lunar": "140.9459254508",
                "kilometers": "54203625.276654164",
                "miles": "33680570.9580849032"
            },
            "orbiting_body": "Earth"
        }
    ],
    "orbital_data": {
        "orbit_id": "15",
        "orbit_determination_date": "2017-04-06 08:34:47",
        "first_observation_date": "2015-03-24",
        "last_observation_date": "2015-04-15",
        "data_arc_in_days": 22,
        "observations_used": 103,
        "orbit_uncertainty": "7",
        "minimum_orbit_intersection": ".0915145",
        "jupiter_tisserand_invariant": "3.887",
        "epoch_osculation": "2459000.5",
        "eccentricity": ".4642591472927937",
        "semi_major_axis": "1.723822213711689",
        "inclination": "31.56559071446976",
        "ascending_node_longitude": "7.420801098706256",
        "orbital_period": "826.6794391701561",
        "perihelion_distance": ".9235219826895241",
        "perihelion_argument": "118.6634555279076",
        "aphelion_distance": "2.524122444733853",
        "perihelion_time": "2458713.926783992233",
        "mean_anomaly": "124.796085247212",
        "mean_motion": ".4354771425806575",
        "equinox": "J2000",
        "orbit_class": {
            "orbit_class_type": "APO",
            "orbit_class_description": "Near-Earth asteroid orbits which cross the Earth’s orbit similar to that of 1862 Apollo",
            "orbit_class_range": "a (semi-major axis) > 1.0 AU; q (perihelion) < 1.017 AU"
        }
    },
    "is_sentry_object": false
}